1 27424U 02022A   10011.81830040 +.00000061 +00000-0 +23534-4 0 05345
2 27424 098.2022 315.6433 0000828 113.0886 247.0403 14.57114699409149